[{"OBJECT_NAME":"NUSAT-35 (WILLIAMINA)","OBJECT_ID":"2023-001AR","EPOCH":"2026-03-09T22:28:40.425600","MEAN_MOTION":15.3245616,"ECCENTRICITY":0.00136635,"INCLINATION":97.1993,"RA_OF_ASC_NODE":124.278,"ARG_OF_PERICENTER":97.0313,"MEAN_ANOMALY":263.2484,"EPHEMERIS_TYPE":0,"CLASSIFICATION_TYPE":"U","NORAD_CAT_ID":55048,"ELEMENT_SET_NO":999,"REV_AT_EPOCH":17719,"BSTAR":0.00053479647,"MEAN_MOTION_DOT":0.0001675,"MEAN_MOTION_DDOT":0},{"OBJECT_NAME":"STARLINK-30978","OBJECT_ID":"2023-186T","EPOCH":"2026-03-09T22:00:01.999584","MEAN_MOTION":15.27576199,"ECCENTRICITY":0.00020459,"INCLINATION":43.0004,"RA_OF_ASC_NODE":62.2852,"ARG_OF_PERICENTER":214.3303,"MEAN_ANOMALY":79.869,"EPHEMERIS_TYPE":0,"CLASSIFICATION_TYPE":"U","NORAD_CAT_ID":58490,"ELEMENT_SET_NO":999,"REV_AT_EPOCH":578,"BSTAR":0.0017039495,"MEAN_MOTION_DOT":0.00046921,"MEAN_MOTION_DDOT":0}]
